[{"OBJECT_NAME":"ATLAS CENTAUR 2","OBJECT_ID":"1963-047A","EPOCH":"2026-04-16T05:25:03.863424","MEAN_MOTION":14.12245175,"ECCENTRICITY":0.05467295,"INCLINATION":30.3541,"RA_OF_ASC_NODE":345.8463,"ARG_OF_PERICENTER":51.143,"MEAN_ANOMALY":313.6681,"EPHEMERIS_TYPE":0,"CLASSIFICATION_TYPE":"U","NORAD_CAT_ID":694,"ELEMENT_SET_NO":999,"REV_AT_EPOCH":13693,"BSTAR":0.00022819718,"MEAN_MOTION_DOT":1.944e-5,"MEAN_MOTION_DDOT":0},{"OBJECT_NAME":"THOR AGENA D R/B","OBJECT_ID":"1964-002A","EPOCH":"2026-04-16T06:27:55.640736","MEAN_MOTION":14.34039383,"ECCENTRICITY":0.00335035,"INCLINATION":99.1199,"RA_OF_ASC_NODE":121.6528,"ARG_OF_PERICENTER":147.6452,"MEAN_ANOMALY":212.6794,"EPHEMERIS_TYPE":0,"CLASSIFICATION_TYPE":"U","NORAD_CAT_ID":733,"ELEMENT_SET_NO":999,"REV_AT_EPOCH":24368,"BSTAR":5.1784394e-5,"MEAN_MOTION_DOT":9.7e-7,"MEAN_MOTION_DDOT":0},{"OBJECT_NAME":"SL-3 R/B","OBJECT_ID":"1964-053B","EPOCH":"2026-04-16T01:21:30.069792","MEAN_MOTION":14.61394411,"ECCENTRICITY":0.00809038,"INCLINATION":65.0768,"RA_OF_ASC_NODE":221.6792,"ARG_OF_PERICENTER":280.505,"MEAN_ANOMALY":78.6942,"EPHEMERIS_TYPE":0,"CLASSIFICATION_TYPE":"U","NORAD_CAT_ID":877,"ELEMENT_SET_NO":999,"REV_AT_EPOCH":27225,"BSTAR":3.4600054e-5,"MEAN_MOTION_DOT":5.3e-7,"MEAN_MOTION_DDOT":0},{"OBJECT_NAME":"SL-8 R/B","OBJECT_ID":"1967-045B","EPOCH":"2026-04-16T05:17:39.749280","MEAN_MOTION":14.45650386,"ECCENTRICITY":0.00651698,"INCLINATION":74.0095,"RA_OF_ASC_NODE":277.9931,"ARG_OF_PERICENTER":276.2054,"MEAN_ANOMALY":83.1683,"EPHEMERIS_TYPE":0,"CLASSIFICATION_TYPE":"U","NORAD_CAT_ID":2802,"ELEMENT_SET_NO":999,"REV_AT_EPOCH":9444,"BSTAR":6.2629806e-5,"MEAN_MOTION_DOT":1.98e-6,"MEAN_MOTION_DDOT":0},{"OBJECT_NAME":"SL-8 R/B","OBJECT_ID":"1968-040B","EPOCH":"2026-04-16T07:22:46.776576","MEAN_MOTION":15.03515654,"ECCENTRICITY":0.0023607,"INCLINATION":74.0297,"RA_OF_ASC_NODE":236.8071,"ARG_OF_PERICENTER":45.1309,"MEAN_ANOMALY":315.1791,"EPHEMERIS_TYPE":0,"CLASSIFICATION_TYPE":"U","NORAD_CAT_ID":3230,"ELEMENT_SET_NO":999,"REV_AT_EPOCH":9566,"BSTAR":0.00014438542,"MEAN_MOTION_DOT":1.938e-5,"MEAN_MOTION_DDOT":0},{"OBJECT_NAME":"OAO 2","OBJECT_ID":"1968-110A","EPOCH":"2026-04-16T05:49:59.980512","MEAN_MOTION":14.47327851,"ECCENTRICITY":0.00052461,"INCLINATION":34.9938,"RA_OF_ASC_NODE":55.5452,"ARG_OF_PERICENTER":144.6886,"MEAN_ANOMALY":215.4153,"EPHEMERIS_TYPE":0,"CLASSIFICATION_TYPE":"U","NORAD_CAT_ID":3597,"ELEMENT_SET_NO":999,"REV_AT_EPOCH":2454,"BSTAR":3.5452807e-5,"MEAN_MOTION_DOT":1.13e-6,"MEAN_MOTION_DDOT":0},{"OBJECT_NAME":"ISIS 1","OBJECT_ID":"1969-009A","EPOCH":"2026-04-16T01:34:58.645920","MEAN_MOTION":11.30422881,"ECCENTRICITY":0.17074193,"INCLINATION":88.4466,"RA_OF_ASC_NODE":151.224,"ARG_OF_PERICENTER":13.7544,"MEAN_ANOMALY":350.4536,"EPHEMERIS_TYPE":0,"CLASSIFICATION_TYPE":"U","NORAD_CAT_ID":3669,"ELEMENT_SET_NO":999,"REV_AT_EPOCH":35275,"BSTAR":4.8612233e-5,"MEAN_MOTION_DOT":8.0e-7,"MEAN_MOTION_DDOT":0},{"OBJECT_NAME":"SERT 2","OBJECT_ID":"1970-009A","EPOCH":"2026-04-16T06:36:01.999296","MEAN_MOTION":13.5873444,"ECCENTRICITY":0.00057864,"INCLINATION":99.2806,"RA_OF_ASC_NODE":47.3222,"ARG_OF_PERICENTER":71.7205,"MEAN_ANOMALY":96.4906,"EPHEMERIS_TYPE":0,"CLASSIFICATION_TYPE":"U","NORAD_CAT_ID":4327,"ELEMENT_SET_NO":999,"REV_AT_EPOCH":78499,"BSTAR":6.9049707e-5,"MEAN_MOTION_DOT":9.0e-8,"MEAN_MOTION_DDOT":0},{"OBJECT_NAME":"SL-3 R/B","OBJECT_ID":"1971-028B","EPOCH":"2026-04-16T05:45:35.452224","MEAN_MOTION":15.64474754,"ECCENTRICITY":0.00163805,"INCLINATION":81.238,"RA_OF_ASC_NODE":5.5389,"ARG_OF_PERICENTER":141.696,"MEAN_ANOMALY":218.5462,"EPHEMERIS_TYPE":0,"CLASSIFICATION_TYPE":"U","NORAD_CAT_ID":5118,"ELEMENT_SET_NO":999,"REV_AT_EPOCH":99453,"BSTAR":0.00026453606,"MEAN_MOTION_DOT":0.00025651,"MEAN_MOTION_DDOT":0},{"OBJECT_NAME":"ASTEX 1","OBJECT_ID":"1971-089A","EPOCH":"2026-04-16T03:16:28.039296","MEAN_MOTION":14.50806037,"ECCENTRICITY":0.00139996,"INCLINATION":92.7063,"RA_OF_ASC_NODE":163.8569,"ARG_OF_PERICENTER":325.1958,"MEAN_ANOMALY":34.8331,"EPHEMERIS_TYPE":0,"CLASSIFICATION_TYPE":"U","NORAD_CAT_ID":5560,"ELEMENT_SET_NO":999,"REV_AT_EPOCH":86773,"BSTAR":5.9375828e-5,"MEAN_MOTION_DOT":2.33e-6,"MEAN_MOTION_DDOT":0},{"OBJECT_NAME":"SL-8 R/B","OBJECT_ID":"1971-119B","EPOCH":"2026-04-16T06:55:50.719872","MEAN_MOTION":14.38503152,"ECCENTRICITY":0.05455967,"INCLINATION":73.8833,"RA_OF_ASC_NODE":105.3993,"ARG_OF_PERICENTER":64.068,"MEAN_ANOMALY":301.5644,"EPHEMERIS_TYPE":0,"CLASSIFICATION_TYPE":"U","NORAD_CAT_ID":5730,"ELEMENT_SET_NO":999,"REV_AT_EPOCH":66089,"BSTAR":0.00026037637,"MEAN_MOTION_DOT":4.97e-5,"MEAN_MOTION_DDOT":0},{"OBJECT_NAME":"OAO 3 (COPERNICUS)","OBJECT_ID":"1972-065A","EPOCH":"2026-04-16T04:52:40.043136","MEAN_MOTION":14.60026208,"ECCENTRICITY":0.00060655,"INCLINATION":35.0055,"RA_OF_ASC_NODE":83.5763,"ARG_OF_PERICENTER":110.0299,"MEAN_ANOMALY":267.1244,"EPHEMERIS_TYPE":0,"CLASSIFICATION_TYPE":"U","NORAD_CAT_ID":6153,"ELEMENT_SET_NO":999,"REV_AT_EPOCH":85168,"BSTAR":3.8245026e-5,"MEAN_MOTION_DOT":1.65e-6,"MEAN_MOTION_DDOT":0},{"OBJECT_NAME":"ATLAS CENTAUR R/B","OBJECT_ID":"1972-065B","EPOCH":"2026-04-16T01:21:01.755648","MEAN_MOTION":14.77789793,"ECCENTRICITY":0.00338628,"INCLINATION":35.0013,"RA_OF_ASC_NODE":86.7486,"ARG_OF_PERICENTER":323.7629,"MEAN_ANOMALY":36.0779,"EPHEMERIS_TYPE":0,"CLASSIFICATION_TYPE":"U","NORAD_CAT_ID":6155,"ELEMENT_SET_NO":999,"REV_AT_EPOCH":84679,"BSTAR":9.3468932e-5,"MEAN_MOTION_DOT":6.64e-6,"MEAN_MOTION_DDOT":0},{"OBJECT_NAME":"SL-8 R/B","OBJECT_ID":"1975-112B","EPOCH":"2026-04-16T06:33:47.282688","MEAN_MOTION":14.38223351,"ECCENTRICITY":0.00150735,"INCLINATION":74.06,"RA_OF_ASC_NODE":309.7765,"ARG_OF_PERICENTER":28.5741,"MEAN_ANOMALY":331.6236,"EPHEMERIS_TYPE":0,"CLASSIFICATION_TYPE":"U","NORAD_CAT_ID":8459,"ELEMENT_SET_NO":999,"REV_AT_EPOCH":63727,"BSTAR":3.0556799e-5,"MEAN_MOTION_DOT":6.7e-7,"MEAN_MOTION_DDOT":0},{"OBJECT_NAME":"SL-3 R/B","OBJECT_ID":"1977-057B","EPOCH":"2026-04-16T04:39:11.862720","MEAN_MOTION":15.46538026,"ECCENTRICITY":0.00080474,"INCLINATION":97.5807,"RA_OF_ASC_NODE":279.8071,"ARG_OF_PERICENTER":141.5355,"MEAN_ANOMALY":218.6469,"EPHEMERIS_TYPE":0,"CLASSIFICATION_TYPE":"U","NORAD_CAT_ID":10114,"ELEMENT_SET_NO":999,"REV_AT_EPOCH":67412,"BSTAR":0.00014345393,"MEAN_MOTION_DOT":7.038e-5,"MEAN_MOTION_DDOT":0},{"OBJECT_NAME":"SEASAT 1","OBJECT_ID":"1978-064A","EPOCH":"2026-04-16T04:40:09.232320","MEAN_MOTION":14.46192682,"ECCENTRICITY":0.00027896,"INCLINATION":108.0072,"RA_OF_ASC_NODE":204.1897,"ARG_OF_PERICENTER":266.292,"MEAN_ANOMALY":93.7907,"EPHEMERIS_TYPE":0,"CLASSIFICATION_TYPE":"U","NORAD_CAT_ID":10967,"ELEMENT_SET_NO":999,"REV_AT_EPOCH":51193,"BSTAR":7.834924e-5,"MEAN_MOTION_DOT":1.43e-6,"MEAN_MOTION_DDOT":0},{"OBJECT_NAME":"SL-14 R/B","OBJECT_ID":"1979-011B","EPOCH":"2026-04-16T06:33:16.702272","MEAN_MOTION":14.91958286,"ECCENTRICITY":0.00145263,"INCLINATION":82.5238,"RA_OF_ASC_NODE":60.8992,"ARG_OF_PERICENTER":294.6465,"MEAN_ANOMALY":65.3241,"EPHEMERIS_TYPE":0,"CLASSIFICATION_TYPE":"U","NORAD_CAT_ID":11267,"ELEMENT_SET_NO":999,"REV_AT_EPOCH":53438,"BSTAR":3.249018e-5,"MEAN_MOTION_DOT":3.55e-6,"MEAN_MOTION_DDOT":0}]
