ATLAS CENTAUR 2         
1 00694U 63047A   26106.22573916  .00001944  00000+0  22820-3 0  9993
2 00694  30.3541 345.8463 0546729  51.1430 313.6681 14.12245175136939
THOR AGENA D R/B        
1 00733U 64002A   26106.26939399  .00000097  00000+0  51784-4 0  9994
2 00733  99.1199 121.6528 0033503 147.6452 212.6794 14.34039383243683
SL-3 R/B                
1 00877U 64053B   26106.05659803  .00000053  00000+0  34600-4 0  9995
2 00877  65.0768 221.6792 0080903 280.5050  78.6942 14.61394411272253
SL-8 R/B                
1 02802U 67045B   26106.22059895  .00000198  00000+0  62630-4 0  9997
2 02802  74.0095 277.9931 0065169 276.2054  83.1683 14.45650386 94442
SL-8 R/B                
1 03230U 68040B   26106.30748584  .00001938  00000+0  14439-3 0  9994
2 03230  74.0297 236.8071 0023607  45.1309 315.1791 15.03515654 95664
OAO 2                   
1 03597U 68110A   26106.24305533  .00000113  00000+0  35453-4 0  9998
2 03597  34.9938  55.5452 0005246 144.6886 215.4153 14.47327851 24540
ISIS 1                  
1 03669U 69009A   26106.06595655  .00000080  00000+0  48612-4 0  9996
2 03669  88.4466 151.2240 1707419  13.7544 350.4536 11.30422881352758
SERT 2                  
1 04327U 70009A   26106.27502314  .00000009  00000+0  69050-4 0  9993
2 04327  99.2806  47.3222 0005786  71.7205  96.4906 13.58734440784990
SL-3 R/B                
1 05118U 71028B   26106.23999366  .00025651  00000+0  26454-3 0  9997
2 05118  81.2380   5.5389 0016380 141.6960 218.5462 15.64474754994539
ASTEX 1                 
1 05560U 71089A   26106.13643564  .00000233  00000+0  59376-4 0  9999
2 05560  92.7063 163.8569 0013999 325.1958  34.8331 14.50806037867734
SL-8 R/B                
1 05730U 71119B   26106.28878148  .00004970  00000+0  26038-3 0  9996
2 05730  73.8833 105.3993 0545596  64.0680 301.5644 14.38503152660891
OAO 3 (COPERNICUS)      
1 06153U 72065A   26106.20324124  .00000165  00000+0  38245-4 0  9995
2 06153  35.0055  83.5763 0006065 110.0299 267.1244 14.60026208851689
ATLAS CENTAUR R/B       
1 06155U 72065B   26106.05627032  .00000664  00000+0  93469-4 0  9997
2 06155  35.0013  86.7486 0033862 323.7629  36.0779 14.77789793846792
SL-8 R/B                
1 08459U 75112B   26106.27346392  .00000067  00000+0  30557-4 0  9999
2 08459  74.0600 309.7765 0015073  28.5741 331.6236 14.38223351637276
SL-3 R/B                
1 10114U 77057B   26106.19388730  .00007038  00000+0  14345-3 0  9994
2 10114  97.5807 279.8071 0008047 141.5355 218.6469 15.46538026674128
SEASAT 1                
1 10967U 78064A   26106.19455130  .00000143  00000+0  78349-4 0  9993
2 10967 108.0072 204.1897 0002789 266.2920  93.7907 14.46192682511934
SL-14 R/B               
1 11267U 79011B   26106.27310998  .00000355  00000+0  32490-4 0  9993
2 11267  82.5238  60.8992 0014526 294.6465  65.3241 14.91958286534382
